{"type": "FeatureCollection", "features": [ {"type": "Feature", "properties": {"norad_id": 43262, "name": "GAOFEN-1 04", "group": "resource", "lat": 1.3695604847480365, "lon": -140.27459927270118, "alt_km": 643.8482431090924, "timestamp": "2025-12-07T16:44:03.568530+00:00", "meta": {"OBJECT_NAME": "GAOFEN-1 04", "OBJECT_ID": "2018-031D", "EPOCH": "2025-12-06T22:02:12.386688", "MEAN_MOTION": 14.76431559, "ECCENTRICITY": 0.00012236, "INCLINATION": 98.0813, "RA_OF_ASC_NODE": 38.7514, "ARG_OF_PERICENTER": 62.0244, "MEAN_ANOMALY": 298.1089, "EPHEMERIS_TYPE": 0, "CLASSIFICATION_TYPE": "U", "NORAD_CAT_ID": 43262, "ELEMENT_SET_NO": 999, "REV_AT_EPOCH": 41431, "BSTAR": 0.00026097934, "MEAN_MOTION_DOT": 1.763e-05, "MEAN_MOTION_DDOT": 0}, "tle": {"line1": "1 43262U 18031D   25340.91819892  .00001763  00000+0  26098-3 0  9995", "line2": "2 43262  98.0813  38.7514 0001223  62.0244 298.1089 14.76431559414317"}}, "geometry": {"type": "Point", "coordinates": [-140.27459927270118, 1.3695604847480365]}}, {"type": "Feature", "properties": {"norad_id": 43437, "name": "SENTINEL-3B", "group": "resource", "lat": 13.815013516608655, "lon": -130.90603307576816, "alt_km": 803.0678825358627, "timestamp": "2025-12-07T16:44:03.568541+00:00", "meta": {"OBJECT_NAME": "SENTINEL-3B", "OBJECT_ID": "2018-039A", "EPOCH": "2025-12-06T21:26:42.300096", "MEAN_MOTION": 14.26739353, "ECCENTRICITY": 0.00015126, "INCLINATION": 98.6273, "RA_OF_ASC_NODE": 46.1623, "ARG_OF_PERICENTER": 108.449, "MEAN_ANOMALY": 251.6855, "EPHEMERIS_TYPE": 0, "CLASSIFICATION_TYPE": "U", "NORAD_CAT_ID": 43437, "ELEMENT_SET_NO": 999, "REV_AT_EPOCH": 39670, "BSTAR": 0.00013816413, "MEAN_MOTION_DOT": 2.91e-06, "MEAN_MOTION_DDOT": 0}, "tle": {"line1": "1 43437U 18039A   25340.89354514  .00000291  00000+0  13816-3 0  9998", "line2": "2 43437  98.6273  46.1623 0001512 108.4490 251.6855 14.26739353396705"}}, "geometry": {"type": "Point", "coordinates": [-130.90603307576816, 13.815013516608655]}}, {"type": "Feature", "properties": {"norad_id": 43461, "name": "GAOFEN-5 01", "group": "resource", "lat": -80.07217505806918, "lon": 66.64060381546707, "alt_km": 699.2620478909421, "timestamp": "2025-12-07T16:44:03.568551+00:00", "meta": {"OBJECT_NAME": "GAOFEN-5 01", "OBJECT_ID": "2018-043A", "EPOCH": "2025-12-06T21:26:15.655200", "MEAN_MOTION": 14.6039985, "ECCENTRICITY": 0.00013446, "INCLINATION": 98.4316, "RA_OF_ASC_NODE": 303.7587, "ARG_OF_PERICENTER": 0.2651, "MEAN_ANOMALY": 359.8549, "EPHEMERIS_TYPE": 0, "CLASSIFICATION_TYPE": "U", "NORAD_CAT_ID": 43461, "ELEMENT_SET_NO": 999, "REV_AT_EPOCH": 40362, "BSTAR": 0.00020668899, "MEAN_MOTION_DOT": 9.52e-06, "MEAN_MOTION_DDOT": 0}, "tle": {"line1": "1 43461U 18043A   25340.89323675  .00000952  00000+0  20669-3 0  9992", "line2": "2 43461  98.4316 303.7587 0001344   0.2651 359.8549 14.60399850403623"}}, "geometry": {"type": "Point", "coordinates": [66.64060381546707, -80.07217505806918]}}, {"type": "Feature", "properties": {"norad_id": 43484, "name": "GAOFEN-6", "group": "resource", "lat": -32.25310633291108, "lon": 51.09808962802307, "alt_km": 649.6679426765304, "timestamp": "2025-12-07T16:44:03.568562+00:00", "meta": {"OBJECT_NAME": "GAOFEN-6", "OBJECT_ID": "2018-048A", "EPOCH": "2025-12-06T22:59:28.594176", "MEAN_MOTION": 14.76550088, "ECCENTRICITY": 0.00133002, "INCLINATION": 97.8039, "RA_OF_ASC_NODE": 45.4189, "ARG_OF_PERICENTER": 80.802, "MEAN_ANOMALY": 279.4695, "EPHEMERIS_TYPE": 0, "CLASSIFICATION_TYPE": "U", "NORAD_CAT_ID": 43484, "ELEMENT_SET_NO": 999, "REV_AT_EPOCH": 40502, "BSTAR": 0.00022882612, "MEAN_MOTION_DOT": 1.549e-05, "MEAN_MOTION_DDOT": 0}, "tle": {"line1": "1 43484U 18048A   25340.95796984  .00001549  00000+0  22883-3 0  9999", "line2": "2 43484  97.8039  45.4189 0013300  80.8020 279.4695 14.76550088405024"}}, "geometry": {"type": "Point", "coordinates": [51.09808962802307, -32.25310633291108]}}, {"type": "Feature", "properties": {"norad_id": 43585, "name": "GAOFEN-11 01", "group": "resource", "lat": -77.24599923408111, "lon": -169.04301783274772, "alt_km": 426.27449656038243, "timestamp": "2025-12-07T16:44:03.568573+00:00", "meta": {"OBJECT_NAME": "GAOFEN-11 01", "OBJECT_ID": "2018-063A", "EPOCH": "2025-12-06T22:33:46.413792", "MEAN_MOTION": 15.48980301, "ECCENTRICITY": 0.00046591, "INCLINATION": 97.1565, "RA_OF_ASC_NODE": 43.9242, "ARG_OF_PERICENTER": 339.5235, "MEAN_ANOMALY": 20.5829, "EPHEMERIS_TYPE": 0, "CLASSIFICATION_TYPE": "U", "NORAD_CAT_ID": 43585, "ELEMENT_SET_NO": 999, "REV_AT_EPOCH": 41052, "BSTAR": 0.00038915046, "MEAN_MOTION_DOT": 0.00020986, "MEAN_MOTION_DDOT": 0}, "tle": {"line1": "1 43585U 18063A   25340.94012053  .00020986  00000+0  38915-3 0  9994", "line2": "2 43585  97.1565  43.9242 0004659 339.5235  20.5829 15.48980301410525"}}, "geometry": {"type": "Point", "coordinates": [-169.04301783274772, -77.24599923408111]}}, {"type": "Feature", "properties": {"norad_id": 43613, "name": "ICESAT-2", "group": "resource", "lat": 14.300618447969123, "lon": -121.13574413457353, "alt_km": 483.33833414978653, "timestamp": "2025-12-07T16:44:03.568583+00:00", "meta": {"OBJECT_NAME": "ICESAT-2", "OBJECT_ID": "2018-070A", "EPOCH": "2025-12-06T23:23:04.392096", "MEAN_MOTION": 15.28183791, "ECCENTRICITY": 0.00018122, "INCLINATION": 92.005, "RA_OF_ASC_NODE": 239.1809, "ARG_OF_PERICENTER": 162.0047, "MEAN_ANOMALY": 198.1267, "EPHEMERIS_TYPE": 0, "CLASSIFICATION_TYPE": "U", "NORAD_CAT_ID": 43613, "ELEMENT_SET_NO": 999, "REV_AT_EPOCH": 40310, "BSTAR": 0.00068478647, "MEAN_MOTION_DOT": 0.00018822, "MEAN_MOTION_DDOT": 0}, "tle": {"line1": "1 43613U 18070A   25340.97435639  .00018822  00000+0  68479-3 0  9990", "line2": "2 43613  92.0050 239.1809 0001812 162.0047 198.1267 15.28183791403106"}}, "geometry": {"type": "Point", "coordinates": [-121.13574413457353, 14.300618447969123]}}, {"type": "Feature", "properties": {"norad_id": 43719, "name": "HYSIS", "group": "resource", "lat": -34.47228202056208, "lon": 50.24787433428961, "alt_km": 640.0282951056897, "timestamp": "2025-12-07T16:44:03.568593+00:00", "meta": {"OBJECT_NAME": "HYSIS", "OBJECT_ID": "2018-096A", "EPOCH": "2025-12-06T21:24:08.131392", "MEAN_MOTION": 14.78620746, "ECCENTRICITY": 0.00015555, "INCLINATION": 98.0103, "RA_OF_ASC_NODE": 43.8982, "ARG_OF_PERICENTER": 63.768, "MEAN_ANOMALY": 296.3691, "EPHEMERIS_TYPE": 0, "CLASSIFICATION_TYPE": "U", "NORAD_CAT_ID": 43719, "ELEMENT_SET_NO": 999, "REV_AT_EPOCH": 37900, "BSTAR": 0.00034144867, "MEAN_MOTION_DOT": 2.448e-05, "MEAN_MOTION_DDOT": 0}, "tle": {"line1": "1 43719U 18096A   25340.89176078  .00002448  00000+0  34145-3 0  9995", "line2": "2 43719  98.0103  43.8982 0001555  63.7680 296.3691 14.78620746379007"}}, "geometry": {"type": "Point", "coordinates": [50.24787433428961, -34.47228202056208]}}, {"type": "Feature", "properties": {"norad_id": 43783, "name": "KAZSTSAT", "group": "resource", "lat": -6.3840141458129285, "lon": -163.74044028991125, "alt_km": 577.0104590391911, "timestamp": "2025-12-07T16:44:03.568604+00:00", "meta": {"OBJECT_NAME": "KAZSTSAT", "OBJECT_ID": "2018-099AB", "EPOCH": "2025-12-06T22:17:12.640128", "MEAN_MOTION": 14.99324571, "ECCENTRICITY": 0.00062615, "INCLINATION": 97.4553, "RA_OF_ASC_NODE": 16.3634, "ARG_OF_PERICENTER": 353.3011, "MEAN_ANOMALY": 6.8128, "EPHEMERIS_TYPE": 0, "CLASSIFICATION_TYPE": "U", "NORAD_CAT_ID": 43783, "ELEMENT_SET_NO": 999, "REV_AT_EPOCH": 38249, "BSTAR": 0.00026087146, "MEAN_MOTION_DOT": 3.133e-05, "MEAN_MOTION_DDOT": 0}, "tle": {"line1": "1 43783U 18099AB  25340.92861852  .00003133  00000+0  26087-3 0  9992", "line2": "2 43783  97.4553  16.3634 0006261 353.3011   6.8128 14.99324571382490"}}, "geometry": {"type": "Point", "coordinates": [-163.74044028991125, -6.3840141458129285]}}, {"type": "Feature", "properties": {"norad_id": 43831, "name": "SAUDISAT 5A", "group": "resource", "lat": 56.166658608477185, "lon": -126.93274191661718, "alt_km": 476.86287942450144, "timestamp": "2025-12-07T16:44:03.568614+00:00", "meta": {"OBJECT_NAME": "SAUDISAT 5A", "OBJECT_ID": "2018-102A", "EPOCH": "2025-12-06T22:52:52.926240", "MEAN_MOTION": 15.25549855, "ECCENTRICITY": 0.00118276, "INCLINATION": 97.3358, "RA_OF_ASC_NODE": 41.2566, "ARG_OF_PERICENTER": 93.8641, "MEAN_ANOMALY": 266.395, "EPHEMERIS_TYPE": 0, "CLASSIFICATION_TYPE": "U", "NORAD_CAT_ID": 43831, "ELEMENT_SET_NO": 999, "REV_AT_EPOCH": 38634, "BSTAR": 0.00038070625, "MEAN_MOTION_DOT": 9.609e-05, "MEAN_MOTION_DDOT": 0}, "tle": {"line1": "1 43831U 18102A   25340.95339035  .00009609  00000+0  38071-3 0  9997", "line2": "2 43831  97.3358  41.2566 0011827  93.8641 266.3950 15.25549855386344"}}, "geometry": {"type": "Point", "coordinates": [-126.93274191661718, 56.166658608477185]}}, {"type": "Feature", "properties": {"norad_id": 43833, "name": "SAUDISAT 5B", "group": "resource", "lat": 10.837539926669319, "lon": -133.86927460510591, "alt_km": 487.403882069626, "timestamp": "2025-12-07T16:44:03.568625+00:00", "meta": {"OBJECT_NAME": "SAUDISAT 5B", "OBJECT_ID": "2018-102C", "EPOCH": "2025-12-06T22:41:06.760896", "MEAN_MOTION": 15.25904918, "ECCENTRICITY": 0.00125201, "INCLINATION": 97.3453, "RA_OF_ASC_NODE": 43.9768, "ARG_OF_PERICENTER": 96.3787, "MEAN_ANOMALY": 263.8878, "EPHEMERIS_TYPE": 0, "CLASSIFICATION_TYPE": "U", "NORAD_CAT_ID": 43833, "ELEMENT_SET_NO": 999, "REV_AT_EPOCH": 38645, "BSTAR": 0.00037599249, "MEAN_MOTION_DOT": 9.593e-05, "MEAN_MOTION_DDOT": 0}, "tle": {"line1": "1 43833U 18102C   25340.94521714  .00009593  00000+0  37599-3 0  9991", "line2": "2 43833  97.3453  43.9768 0012520  96.3787 263.8878 15.25904918386453"}}, "geometry": {"type": "Point", "coordinates": [-133.86927460510591, 10.837539926669319]}}]}